PHISAT 2                
1 60470U 24149C   26068.78834181  .00008925  00000+0  31421-3 0  9996
2 60470  97.3806 148.6498 0001175 168.6230 191.5037 15.29548631 86792
STARLINK-36546          
1 67459U 26008Q   26068.46611758  .00024039  00000+0  87950-3 0  9996
2 67459  43.0026 206.8678 0003774 299.9737  60.0740 15.27603549  9538
