[{"OBJECT_NAME":"PHISAT 2","OBJECT_ID":"2024-149C","EPOCH":"2026-03-09T18:55:12.732384","MEAN_MOTION":15.29548632,"ECCENTRICITY":0.00011753,"INCLINATION":97.3806,"RA_OF_ASC_NODE":148.6498,"ARG_OF_PERICENTER":168.623,"MEAN_ANOMALY":191.5037,"EPHEMERIS_TYPE":0,"CLASSIFICATION_TYPE":"U","NORAD_CAT_ID":60470,"ELEMENT_SET_NO":999,"REV_AT_EPOCH":8679,"BSTAR":0.00031420974,"MEAN_MOTION_DOT":8.925e-5,"MEAN_MOTION_DDOT":0},{"OBJECT_NAME":"STARLINK-36546","OBJECT_ID":"2026-008Q","EPOCH":"2026-03-09T11:11:12.558912","MEAN_MOTION":15.27603549,"ECCENTRICITY":0.00037746,"INCLINATION":43.0026,"RA_OF_ASC_NODE":206.8678,"ARG_OF_PERICENTER":299.9737,"MEAN_ANOMALY":60.074,"EPHEMERIS_TYPE":0,"CLASSIFICATION_TYPE":"U","NORAD_CAT_ID":67459,"ELEMENT_SET_NO":999,"REV_AT_EPOCH":953,"BSTAR":0.00087949749,"MEAN_MOTION_DOT":0.00024039,"MEAN_MOTION_DDOT":0}]
